{
  "type": "FeatureCollection",
  "features": [
    {
      "type": "Feature",
      "properties": {
        "norad_id": 66461,
        "name": "STARLINK-35132",
        "group": "last-30-days",
        "lat": 41.97536405653428,
        "lon": 173.70157847782122,
        "alt_km": 438.1226606435548,
        "timestamp": "2025-12-13T05:42:56.154409+00:00",
        "meta_object_name": "STARLINK-35132",
        "meta_object_id": "2025-262F",
        "meta_epoch": "2025-12-12T06:00:00.999648",
        "meta_mean_motion": 15.4065013,
        "meta_eccentricity": 0.00016233,
        "meta_inclination": 43.0004,
        "meta_ra_of_asc_node": 74.2818,
        "meta_arg_of_pericenter": 282.3995,
        "meta_mean_anomaly": 91.4064,
        "meta_ephemeris_type": 0,
        "meta_classification_type": "U",
        "meta_norad_cat_id": 66461,
        "meta_element_set_no": 999,
        "meta_rev_at_epoch": 555,
        "meta_bstar": 0.0019731087,
        "meta_mean_motion_dot": 0.00082881,
        "meta_mean_motion_ddot": 0,
        "tle_line1": "1 66461U 25262F   25346.25001157  .00082881  00000+0  19731-2 0  9990",
        "tle_line2": "2 66461  43.0004  74.2818 0001623 282.3995  91.4064 15.40650130  5550"
      },
      "geometry": {
        "type": "Point",
        "coordinates": [
          173.70157847782122,
          41.97536405653428
        ]
      }
    },
    {
      "type": "Feature",
      "properties": {
        "norad_id": 66462,
        "name": "STARLINK-35499",
        "group": "last-30-days",
        "lat": 38.68248574765277,
        "lon": -170.67052451321925,
        "alt_km": 438.32375214864715,
        "timestamp": "2025-12-13T05:42:56.154422+00:00",
        "meta_object_name": "STARLINK-35499",
        "meta_object_id": "2025-262G",
        "meta_epoch": "2025-12-12T06:00:00.999648",
        "meta_mean_motion": 15.40626232,
        "meta_eccentricity": 0.00013323,
        "meta_inclination": 43.0004,
        "meta_ra_of_asc_node": 74.2507,
        "meta_arg_of_pericenter": 249.0653,
        "meta_mean_anomaly": 137.1807,
        "meta_ephemeris_type": 0,
        "meta_classification_type": "U",
        "meta_norad_cat_id": 66462,
        "meta_element_set_no": 999,
        "meta_rev_at_epoch": 555,
        "meta_bstar": 0.0019974521,
        "meta_mean_motion_dot": 0.00083851,
        "meta_mean_motion_ddot": 0,
        "tle_line1": "1 66462U 25262G   25346.25001157  .00083851  00000+0  19975-2 0  9999",
        "tle_line2": "2 66462  43.0004  74.2507 0001332 249.0653 137.1807 15.40626232  5553"
      },
      "geometry": {
        "type": "Point",
        "coordinates": [
          -170.67052451321925,
          38.68248574765277
        ]
      }
    },
    {
      "type": "Feature",
      "properties": {
        "norad_id": 66463,
        "name": "STARLINK-35463",
        "group": "last-30-days",
        "lat": 27.049884079557888,
        "lon": -144.73068043903206,
        "alt_km": 440.92994981898937,
        "timestamp": "2025-12-13T05:42:56.154433+00:00",
        "meta_object_name": "STARLINK-35463",
        "meta_object_id": "2025-262H",
        "meta_epoch": "2025-12-12T08:00:13.999968",
        "meta_mean_motion": 15.40801985,
        "meta_eccentricity": 0.00014278,
        "meta_inclination": 43.0008,
        "meta_ra_of_asc_node": 73.7096,
        "meta_arg_of_pericenter": 254.3693,
        "meta_mean_anomaly": 260.2859,
        "meta_ephemeris_type": 0,
        "meta_classification_type": "U",
        "meta_norad_cat_id": 66463,
        "meta_element_set_no": 999,
        "meta_rev_at_epoch": 557,
        "meta_bstar": -0.0042322569,
        "meta_mean_motion_dot": -0.0017372,
        "meta_mean_motion_ddot": 0,
        "tle_line1": "1 66463U 25262H   25346.33349537 -.00173720  00000+0 -42323-2 0  9996",
        "tle_line2": "2 66463  43.0008  73.7096 0001427 254.3693 260.2859 15.40801985  5570"
      },
      "geometry": {
        "type": "Point",
        "coordinates": [
          -144.73068043903206,
          27.049884079557888
        ]
      }
    },
    {
      "type": "Feature",
      "properties": {
        "norad_id": 66464,
        "name": "STARLINK-35435",
        "group": "last-30-days",
        "lat": 33.49096710786444,
        "lon": -156.71165233339855,
        "alt_km": 439.5195707311377,
        "timestamp": "2025-12-13T05:42:56.154448+00:00",
        "meta_object_name": "STARLINK-35435",
        "meta_object_id": "2025-262J",
        "meta_epoch": "2025-12-12T08:00:13.999968",
        "meta_mean_motion": 15.40662699,
        "meta_eccentricity": 0.00017804,
        "meta_inclination": 43.0007,
        "meta_ra_of_asc_node": 73.7399,
        "meta_arg_of_pericenter": 259.1892,
        "meta_mean_anomaly": 243.0969,
        "meta_ephemeris_type": 0,
        "meta_classification_type": "U",
        "meta_norad_cat_id": 66464,
        "meta_element_set_no": 999,
        "meta_rev_at_epoch": 557,
        "meta_bstar": 0.00095177292,
        "meta_mean_motion_dot": 0.00039612,
        "meta_mean_motion_ddot": 0,
        "tle_line1": "1 66464U 25262J   25346.33349537  .00039612  00000+0  95177-3 0  9992",
        "tle_line2": "2 66464  43.0007  73.7399 0001780 259.1892 243.0969 15.40662699  5570"
      },
      "geometry": {
        "type": "Point",
        "coordinates": [
          -156.71165233339855,
          33.49096710786444
        ]
      }
    },
    {
      "type": "Feature",
      "properties": {
        "norad_id": 66465,
        "name": "STARLINK-35448",
        "group": "last-30-days",
        "lat": 11.263761172091968,
        "lon": -123.90628102011571,
        "alt_km": 442.33488280765687,
        "timestamp": "2025-12-13T05:42:56.154460+00:00",
        "meta_object_name": "STARLINK-35448",
        "meta_object_id": "2025-262K",
        "meta_epoch": "2025-12-12T08:00:13.999968",
        "meta_mean_motion": 15.40674592,
        "meta_eccentricity": 0.00011438,
        "meta_inclination": 43.0007,
        "meta_ra_of_asc_node": 73.6487,
        "meta_arg_of_pericenter": 266.8897,
        "meta_mean_anomaly": 272.7018,
        "meta_ephemeris_type": 0,
        "meta_classification_type": "U",
        "meta_norad_cat_id": 66465,
        "meta_element_set_no": 999,
        "meta_rev_at_epoch": 557,
        "meta_bstar": 0.0010312316,
        "meta_mean_motion_dot": 0.0004298,
        "meta_mean_motion_ddot": 0,
        "tle_line1": "1 66465U 25262K   25346.33349537  .00042980  00000+0  10312-2 0  9992",
        "tle_line2": "2 66465  43.0007  73.6487 0001143 266.8897 272.7018 15.40674592  5570"
      },
      "geometry": {
        "type": "Point",
        "coordinates": [
          -123.90628102011571,
          11.263761172091968
        ]
      }
    },
    {
      "type": "Feature",
      "properties": {
        "norad_id": 66466,
        "name": "STARLINK-35388",
        "group": "last-30-days",
        "lat": 2.8352022050299173,
        "lon": -114.6449444592382,
        "alt_km": 443.2238184621765,
        "timestamp": "2025-12-13T05:42:56.154471+00:00",
        "meta_object_name": "STARLINK-35388",
        "meta_object_id": "2025-262L",
        "meta_epoch": "2025-12-12T06:00:00.999648",
        "meta_mean_motion": 15.40630604,
        "meta_eccentricity": 0.00013917,
        "meta_inclination": 43.0005,
        "meta_ra_of_asc_node": 74.0971,
        "meta_arg_of_pericenter": 262.0115,
        "meta_mean_anomaly": 186.4811,
        "meta_ephemeris_type": 0,
        "meta_classification_type": "U",
        "meta_norad_cat_id": 66466,
        "meta_element_set_no": 999,
        "meta_rev_at_epoch": 556,
        "meta_bstar": 0.0019232573,
        "meta_mean_motion_dot": 0.00080703,
        "meta_mean_motion_ddot": 0,
        "tle_line1": "1 66466U 25262L   25346.25001157  .00080703  00000+0  19233-2 0  9993",
        "tle_line2": "2 66466  43.0005  74.0971 0001391 262.0115 186.4811 15.40630604  5565"
      },
      "geometry": {
        "type": "Point",
        "coordinates": [
          -114.6449444592382,
          2.8352022050299173
        ]
      }
    },
    {
      "type": "Feature",
      "properties": {
        "norad_id": 66467,
        "name": "STARLINK-35682",
        "group": "last-30-days",
        "lat": 19.421764931837743,
        "lon": -133.76814369889541,
        "alt_km": 441.42612401063707,
        "timestamp": "2025-12-13T05:42:56.154482+00:00",
        "meta_object_name": "STARLINK-35682",
        "meta_object_id": "2025-262M",
        "meta_epoch": "2025-12-12T06:00:00.999648",
        "meta_mean_motion": 15.40742098,
        "meta_eccentricity": 0.00015987,
        "meta_inclination": 43.0006,
        "meta_ra_of_asc_node": 74.1593,
        "meta_arg_of_pericenter": 245.6927,
        "meta_mean_anomaly": 177.8882,
        "meta_ephemeris_type": 0,
        "meta_classification_type": "U",
        "meta_norad_cat_id": 66467,
        "meta_element_set_no": 999,
        "meta_rev_at_epoch": 555,
        "meta_bstar": -0.0014917593,
        "meta_mean_motion_dot": -0.000622,
        "meta_mean_motion_ddot": 0,
        "tle_line1": "1 66467U 25262M   25346.25001157 -.00062200  00000+0 -14918-2 0  9993",
        "tle_line2": "2 66467  43.0006  74.1593 0001598 245.6927 177.8882 15.40742098  5557"
      },
      "geometry": {
        "type": "Point",
        "coordinates": [
          -133.76814369889541,
          19.421764931837743
        ]
      }
    }
  ]
}